QIANFAN-57              
1 62787U 25016C   25328.75344571  .00000121  00000+0  16942-3 0  9998
2 62787  88.9771 105.0534 0001633 129.2932 230.8364 13.50981740 44777
QIANFAN-58              
1 62788U 25016D   25328.72463558  .00000131  00000+0  18365-3 0  9995
2 62788  88.9741 104.8936 0014629  41.2512 318.9742 13.50972727 44812
QIANFAN-59              
1 62789U 25016E   25328.74931821  .00000183  00000+0  26426-3 0  9995
2 62789  88.9765 104.9604 0015106  44.6391 315.5973 13.50974531 44819
QIANFAN-60              
1 62790U 25016F   25328.70836492  .00000072  00000+0  92749-4 0  9990
2 62790  88.9746 104.9395 0016538  40.9491 319.2899 13.50977765 44794
QIANFAN-61              
1 62791U 25016G   25328.74110565  .00000131  00000+0  18357-3 0  9999
2 62791  88.9813 105.0868 0015470  40.5797 319.6504 13.50974863 44812
QIANFAN-62              
1 62792U 25016H   25328.74525405  .00000123  00000+0  17186-3 0  9993
2 62792  88.9760 104.9645 0016853  40.4513 319.7888 13.50984770 44809
QIANFAN-63              
1 62793U 25016J   25328.76997756  .00000096  00000+0  12912-3 0  9999
2 62793  88.9766 104.9123 0017029  45.4619 314.7920 13.50977829 44848
QIANFAN-64              
1 62794U 25016K   25328.73699101  .00000138  00000+0  19552-3 0  9994
2 62794  88.9753 104.8922 0014813  39.5610 320.6620 13.50979788 44832
